[{"OBJECT_NAME":"STARLINK-4677","OBJECT_ID":"2022-104N","EPOCH":"2026-03-09T22:04:02.386848","MEAN_MOTION":15.08838495,"ECCENTRICITY":0.00012289,"INCLINATION":53.2164,"RA_OF_ASC_NODE":243.4932,"ARG_OF_PERICENTER":92.9071,"MEAN_ANOMALY":267.2061,"EPHEMERIS_TYPE":0,"CLASSIFICATION_TYPE":"U","NORAD_CAT_ID":53600,"ELEMENT_SET_NO":999,"REV_AT_EPOCH":19564,"BSTAR":4.0658142e-5,"MEAN_MOTION_DOT":3.59e-6,"MEAN_MOTION_DDOT":0},{"OBJECT_NAME":"NANOFF A","OBJECT_ID":"2023-185T","EPOCH":"2026-03-09T23:34:34.415328","MEAN_MOTION":15.11542977,"ECCENTRICITY":0.00086783,"INCLINATION":97.5359,"RA_OF_ASC_NODE":137.8345,"ARG_OF_PERICENTER":292.8968,"MEAN_ANOMALY":67.1346,"EPHEMERIS_TYPE":0,"CLASSIFICATION_TYPE":"U","NORAD_CAT_ID":58810,"ELEMENT_SET_NO":999,"REV_AT_EPOCH":11805,"BSTAR":0.00027314844,"MEAN_MOTION_DOT":4.57e-5,"MEAN_MOTION_DDOT":0}]
